{
  "norad_id": 60379,
  "name": "QIANFAN-1",
  "history": [
    {
      "epoch": "2026-03-28T21:35:59.333856Z",
      "apogee_km": 1080.2447370997252,
      "perigee_km": 1056.9074828843222,
      "latitude_deg": -1.4867101556089503e-05,
      "longitude_deg": 137.97476652781185,
      "height_km": 1071.8438516278172,
      "semi_major_axis_km": 7446.713109992023,
      "eccentricity": 0.00156695,
      "inclination_deg": 88.9684,
      "raan_deg": 288.2858,
      "arg_perigee_deg": 268.4806,
      "mean_anomaly_deg": 91.455,
      "mean_motion_rev_day": 13.5100149
    },
    {
      "epoch": "2026-03-29T02:55:56.510112Z",
      "apogee_km": 1080.2433146178646,
      "perigee_km": 1056.9082953721318,
      "latitude_deg": -6.980097677457821e-06,
      "longitude_deg": 57.74443228824633,
      "height_km": 1071.9904582427591,
      "semi_major_axis_km": 7446.712804994998,
      "eccentricity": 0.0015668,
      "inclination_deg": 88.9684,
      "raan_deg": 288.2627,
      "arg_perigee_deg": 267.7588,
      "mean_anomaly_deg": 92.1769,
      "mean_motion_rev_day": 13.51001573
    },
    {
      "epoch": "2026-03-30T03:49:03.348192Z",
      "apogee_km": 1080.2477495217463,
      "perigee_km": 1056.903794324321,
      "latitude_deg": 3.147387449037249e-05,
      "longitude_deg": 43.335841411142184,
      "height_km": 1072.6779056493672,
      "semi_major_axis_km": 7446.712771923033,
      "eccentricity": 0.0015674,
      "inclination_deg": 88.9683,
      "raan_deg": 288.1546,
      "arg_perigee_deg": 264.3774,
      "mean_anomaly_deg": 95.559,
      "mean_motion_rev_day": 13.51001582
    },
    {
      "epoch": "2026-03-30T05:35:42.407808Z",
      "apogee_km": 1080.2470764958598,
      "perigee_km": 1056.9043130143737,
      "latitude_deg": 4.662954605754321e-05,
      "longitude_deg": 16.59239335708956,
      "height_km": 1072.726612985349,
      "semi_major_axis_km": 7446.712694755117,
      "eccentricity": 0.00156732,
      "inclination_deg": 88.9683,
      "raan_deg": 288.1469,
      "arg_perigee_deg": 264.1365,
      "mean_anomaly_deg": 95.8,
      "mean_motion_rev_day": 13.51001603
    },
    {
      "epoch": "2026-03-30T12:42:18.647136Z",
      "apogee_km": 1080.2495880129618,
      "perigee_km": 1056.9014634283185,
      "latitude_deg": -4.733978802374538e-05,
      "longitude_deg": -90.38150523872399,
      "height_km": 1072.9216166127742,
      "semi_major_axis_km": 7446.71252572064,
      "eccentricity": 0.00156768,
      "inclination_deg": 88.9682,
      "raan_deg": 288.116,
      "arg_perigee_deg": 263.1743,
      "mean_anomaly_deg": 96.7624,
      "mean_motion_rev_day": 13.51001649
    },
    {
      "epoch": "2026-03-30T21:35:33.949536Z",
      "apogee_km": 1080.2525831369376,
      "perigee_km": 1056.8982037286532,
      "latitude_deg": 5.849078326760476e-06,
      "longitude_deg": 135.9011360371091,
      "height_km": 1073.167741102097,
      "semi_major_axis_km": 7446.712393432795,
      "eccentricity": 0.0015681,
      "inclination_deg": 88.9682,
      "raan_deg": 288.0774,
      "arg_perigee_deg": 261.958,
      "mean_anomaly_deg": 97.9792,
      "mean_motion_rev_day": 13.51001685
    },
    {
      "epoch": "2026-03-31T18:55:22.666656Z",
      "apogee_km": 1080.2603034257518,
      "perigee_km": 1056.8895427263687,
      "latitude_deg": 3.0977603490656216e-05,
      "longitude_deg": 174.97954955640608,
      "height_km": 1073.7504393207084,
      "semi_major_axis_km": 7446.71192307606,
      "eccentricity": 0.0015692,
      "inclination_deg": 88.9681,
      "raan_deg": 287.9848,
      "arg_perigee_deg": 259.0654,
      "mean_anomaly_deg": 100.8732,
      "mean_motion_rev_day": 13.51001813
    },
    {
      "epoch": "2026-04-01T19:48:29.506464Z",
      "apogee_km": 1080.2779179038016,
      "perigee_km": 1056.8714137957031,
      "latitude_deg": 6.517917742037682e-05,
      "longitude_deg": 160.57085206841774,
      "height_km": 1074.429994368015,
      "semi_major_axis_km": 7446.7116658497525,
      "eccentricity": 0.0015716,
      "inclination_deg": 88.968,
      "raan_deg": 287.8766,
      "arg_perigee_deg": 255.6726,
      "mean_anomaly_deg": 104.2681,
      "mean_motion_rev_day": 13.51001883
    },
    {
      "epoch": "2026-04-02T18:54:57.285792Z",
      "apogee_km": 1080.2922187757358,
      "perigee_km": 1056.8559296829226,
      "latitude_deg": 6.742437163032609e-05,
      "longitude_deg": 172.90580547985684,
      "height_km": 1075.0527455592405,
      "semi_major_axis_km": 7446.711074229329,
      "eccentricity": 0.0015736,
      "inclination_deg": 88.9679,
      "raan_deg": 287.7763,
      "arg_perigee_deg": 252.5233,
      "mean_anomaly_deg": 107.4199,
      "mean_motion_rev_day": 13.51002044
    },
    {
      "epoch": "2026-04-02T22:28:15.406752Z",
      "apogee_km": 1080.29688812104,
      "perigee_km": 1056.8512162416891,
      "latitude_deg": -3.5722211210065464e-05,
      "longitude_deg": 119.41879969252304,
      "height_km": 1075.1499018561624,
      "semi_major_axis_km": 7446.711052181365,
      "eccentricity": 0.00157423,
      "inclination_deg": 88.9679,
      "raan_deg": 287.7608,
      "arg_perigee_deg": 252.0321,
      "mean_anomaly_deg": 107.9114,
      "mean_motion_rev_day": 13.5100205
    },
    {
      "epoch": "2026-04-03T19:48:04.123872Z",
      "apogee_km": 1080.319285786466,
      "perigee_km": 1056.8278925618579,
      "latitude_deg": 5.572052629822494e-05,
      "longitude_deg": 158.49711316019093,
      "height_km": 1075.717061365317,
      "semi_major_axis_km": 7446.710589174162,
      "eccentricity": 0.0015773,
      "inclination_deg": 88.9678,
      "raan_deg": 287.6681,
      "arg_perigee_deg": 249.1339,
      "mean_anomaly_deg": 110.8124,
      "mean_motion_rev_day": 13.51002176
    },
    {
      "epoch": "2026-04-04T18:54:31.910112Z",
      "apogee_km": 1080.3399267895393,
      "perigee_km": 1056.8068326475523,
      "latitude_deg": 3.3751318999955834e-05,
      "longitude_deg": 170.8319357309867,
      "height_km": 1076.310275126298,
      "semi_major_axis_km": 7446.7103797185455,
      "eccentricity": 0.0015801,
      "inclination_deg": 88.9678,
      "raan_deg": 287.5677,
      "arg_perigee_deg": 246.0487,
      "mean_anomaly_deg": 113.901,
      "mean_motion_rev_day": 13.51002233
    },
    {
      "epoch": "2026-04-05T14:27:41.573664Z",
      "apogee_km": 1080.360319484399,
      "perigee_km": 1056.7858226098824,
      "latitude_deg": 4.3257608939660966e-05,
      "longitude_deg": -123.34623039105401,
      "height_km": 1076.7979262162887,
      "semi_major_axis_km": 7446.71007104714,
      "eccentricity": 0.00158288,
      "inclination_deg": 88.9677,
      "raan_deg": 287.4828,
      "arg_perigee_deg": 243.4729,
      "mean_anomaly_deg": 116.48,
      "mean_motion_rev_day": 13.51002317
    },
    {
      "epoch": "2026-04-05T19:47:38.755104Z",
      "apogee_km": 1080.3679151286724,
      "perigee_km": 1056.778226965609,
      "latitude_deg": 6.92437762681252e-06,
      "longitude_deg": 156.42331249654742,
      "height_km": 1076.9345771696685,
      "semi_major_axis_km": 7446.71007104714,
      "eccentricity": 0.0015839,
      "inclination_deg": 88.9678,
      "raan_deg": 287.4596,
      "arg_perigee_deg": 242.7475,
      "mean_anomaly_deg": 117.2063,
      "mean_motion_rev_day": 13.51002317
    },
    {
      "epoch": "2026-04-06T04:40:54.059232Z",
      "apogee_km": 1080.3805753931738,
      "perigee_km": 1056.7654197147313,
      "latitude_deg": 2.5645206593246246e-05,
      "longitude_deg": 22.705944709326953,
      "height_km": 1077.1561343707772,
      "semi_major_axis_km": 7446.709997553952,
      "eccentricity": 0.00158561,
      "inclination_deg": 88.9678,
      "raan_deg": 287.421,
      "arg_perigee_deg": 241.5639,
      "mean_anomaly_deg": 118.3915,
      "mean_motion_rev_day": 13.51002337
    },
    {
      "epoch": "2026-04-07T14:27:16.218720Z",
      "apogee_km": 1080.4373604126067,
      "perigee_km": 1056.707973256658,
      "latitude_deg": 3.074200521057397e-05,
      "longitude_deg": -125.4201906803715,
      "height_km": 1077.9887932943034,
      "semi_major_axis_km": 7446.709666834632,
      "eccentricity": 0.00159328,
      "inclination_deg": 88.9677,
      "raan_deg": 287.2742,
      "arg_perigee_deg": 237.04,
      "mean_anomaly_deg": 122.922,
      "mean_motion_rev_day": 13.51002427
    },
    {
      "epoch": "2026-04-07T19:47:13.401888Z",
      "apogee_km": 1080.4441009699904,
      "perigee_km": 1056.7010122197435,
      "latitude_deg": -2.3303206313882276e-05,
      "longitude_deg": 154.3493444165303,
      "height_km": 1078.1151407400853,
      "semi_major_axis_km": 7446.709556594867,
      "eccentricity": 0.0015942,
      "inclination_deg": 88.9678,
      "raan_deg": 287.251,
      "arg_perigee_deg": 236.3316,
      "mean_anomaly_deg": 123.6315,
      "mean_motion_rev_day": 13.51002457
    },
    {
      "epoch": "2026-04-08T13:33:44.015328Z",
      "apogee_km": 1080.4792610822224,
      "perigee_km": 1056.6651318744362,
      "latitude_deg": 1.4977542070155055e-05,
      "longitude_deg": -113.08541346588022,
      "height_km": 1078.5370445135584,
      "semi_major_axis_km": 7446.7091964783285,
      "eccentricity": 0.00159897,
      "inclination_deg": 88.9678,
      "raan_deg": 287.1738,
      "arg_perigee_deg": 233.9724,
      "mean_anomaly_deg": 125.9946,
      "mean_motion_rev_day": 13.51002555
    },
    {
      "epoch": "2026-04-09T19:46:48.069408Z",
      "apogee_km": 1080.5382361943248,
      "perigee_km": 1056.6060024266844,
      "latitude_deg": -3.594851123604936e-05,
      "longitude_deg": 152.27538922777725,
      "height_km": 1079.2343626194531,
      "semi_major_axis_km": 7446.709119310504,
      "eccentricity": 0.0016069,
      "inclination_deg": 88.9678,
      "raan_deg": 287.0425,
      "arg_perigee_deg": 229.9451,
      "mean_anomaly_deg": 130.0291,
      "mean_motion_rev_day": 13.51002576
    }
  ]
}